[{"OBJECT_NAME":"SKYKRAFT-1A","OBJECT_ID":"2023-001AX","EPOCH":"2026-03-09T17:03:19.828224","MEAN_MOTION":15.28083228,"ECCENTRICITY":0.00112767,"INCLINATION":97.3349,"RA_OF_ASC_NODE":127.629,"ARG_OF_PERICENTER":121.5092,"MEAN_ANOMALY":238.7251,"EPHEMERIS_TYPE":0,"CLASSIFICATION_TYPE":"U","NORAD_CAT_ID":55054,"ELEMENT_SET_NO":999,"REV_AT_EPOCH":17652,"BSTAR":0.0003006872,"MEAN_MOTION_DOT":8.177e-5,"MEAN_MOTION_DDOT":0},{"OBJECT_NAME":"STARLINK-32220","OBJECT_ID":"2024-138R","EPOCH":"2026-03-09T22:29:57.301728","MEAN_MOTION":15.30176624,"ECCENTRICITY":0.00012946,"INCLINATION":53.1608,"RA_OF_ASC_NODE":308.5865,"ARG_OF_PERICENTER":78.0199,"MEAN_ANOMALY":282.0947,"EPHEMERIS_TYPE":0,"CLASSIFICATION_TYPE":"U","NORAD_CAT_ID":60370,"ELEMENT_SET_NO":999,"REV_AT_EPOCH":9066,"BSTAR":0.00014921517,"MEAN_MOTION_DOT":4.059e-5,"MEAN_MOTION_DDOT":0}]
